[{"OBJECT_NAME":"ZHONGXING-4A","OBJECT_ID":"2024-151A","EPOCH":"2026-03-03T17:40:38.750304","MEAN_MOTION":1.00269845,"ECCENTRICITY":0.000154,"INCLINATION":1.5866,"RA_OF_ASC_NODE":271.9393,"ARG_OF_PERICENTER":85.6305,"MEAN_ANOMALY":187.263,"EPHEMERIS_TYPE":0,"CLASSIFICATION_TYPE":"U","NORAD_CAT_ID":60606,"ELEMENT_SET_NO":999,"REV_AT_EPOCH":569,"BSTAR":0,"MEAN_MOTION_DOT":-3.78e-6,"MEAN_MOTION_DDOT":0},{"OBJECT_NAME":"HULIANWAN GAOGUI-03 (HG-03)","OBJECT_ID":"2024-181A","EPOCH":"2026-03-03T20:33:21.305376","MEAN_MOTION":1.002765,"ECCENTRICITY":2.41e-5,"INCLINATION":0.0374,"RA_OF_ASC_NODE":30.5483,"ARG_OF_PERICENTER":153.7444,"MEAN_ANOMALY":208.4964,"EPHEMERIS_TYPE":0,"CLASSIFICATION_TYPE":"U","NORAD_CAT_ID":61503,"ELEMENT_SET_NO":999,"REV_AT_EPOCH":576,"BSTAR":0,"MEAN_MOTION_DOT":-2.55e-6,"MEAN_MOTION_DDOT":0},{"OBJECT_NAME":"DSN-3 (KIRAMEKI-3)","OBJECT_ID":"2024-198A","EPOCH":"2026-03-03T18:10:59.662272","MEAN_MOTION":1.00270028,"ECCENTRICITY":0.0001365,"INCLINATION":0.0232,"RA_OF_ASC_NODE":239.0715,"ARG_OF_PERICENTER":83.1162,"MEAN_ANOMALY":256.1073,"EPHEMERIS_TYPE":0,"CLASSIFICATION_TYPE":"U","NORAD_CAT_ID":61733,"ELEMENT_SET_NO":999,"REV_AT_EPOCH":486,"BSTAR":0,"MEAN_MOTION_DOT":-2.64e-6,"MEAN_MOTION_DDOT":0},{"OBJECT_NAME":"KOREASAT 6A","OBJECT_ID":"2024-206A","EPOCH":"2026-03-03T12:54:59.350752","MEAN_MOTION":1.00270626,"ECCENTRICITY":0.0001026,"INCLINATION":0.0168,"RA_OF_ASC_NODE":132.546,"ARG_OF_PERICENTER":197.0545,"MEAN_ANOMALY":141.4465,"EPHEMERIS_TYPE":0,"CLASSIFICATION_TYPE":"U","NORAD_CAT_ID":61910,"ELEMENT_SET_NO":999,"REV_AT_EPOCH":478,"BSTAR":0,"MEAN_MOTION_DOT":-3.76e-6,"MEAN_MOTION_DDOT":0},{"OBJECT_NAME":"INTELSAT 33E DEB","OBJECT_ID":"2016-053E","EPOCH":"2026-03-02T19:17:02.494176","MEAN_MOTION":0.99847537,"ECCENTRICITY":0.00368054,"INCLINATION":1.4591,"RA_OF_ASC_NODE":96.312,"ARG_OF_PERICENTER":133.7688,"MEAN_ANOMALY":227.3001,"EPHEMERIS_TYPE":0,"CLASSIFICATION_TYPE":"U","NORAD_CAT_ID":61988,"ELEMENT_SET_NO":999,"REV_AT_EPOCH":497,"BSTAR":0,"MEAN_MOTION_DOT":-3.9e-7,"MEAN_MOTION_DDOT":0},{"OBJECT_NAME":"INTELSAT 33E DEB","OBJECT_ID":"2016-053F","EPOCH":"2026-03-01T23:14:19.258944","MEAN_MOTION":0.98050636,"ECCENTRICITY":0.04302841,"INCLINATION":2.2745,"RA_OF_ASC_NODE":114.5723,"ARG_OF_PERICENTER":151.5641,"MEAN_ANOMALY":211.1417,"EPHEMERIS_TYPE":0,"CLASSIFICATION_TYPE":"U","NORAD_CAT_ID":61989,"ELEMENT_SET_NO":999,"REV_AT_EPOCH":479,"BSTAR":0,"MEAN_MOTION_DOT":-2.91e-6,"MEAN_MOTION_DDOT":0},{"OBJECT_NAME":"INTELSAT 33E DEB","OBJECT_ID":"2016-053G","EPOCH":"2026-03-03T01:20:48.793920","MEAN_MOTION":1.0139122,"ECCENTRICITY":0.0137757,"INCLINATION":1.1971,"RA_OF_ASC_NODE":74.9944,"ARG_OF_PERICENTER":293.2137,"MEAN_ANOMALY":66.4733,"EPHEMERIS_TYPE":0,"CLASSIFICATION_TYPE":"U","NORAD_CAT_ID":61990,"ELEMENT_SET_NO":999,"REV_AT_EPOCH":507,"BSTAR":0,"MEAN_MOTION_DOT":-2.55e-6,"MEAN_MOTION_DDOT":0},{"OBJECT_NAME":"INTELSAT 33E DEB","OBJECT_ID":"2016-053H","EPOCH":"2026-03-02T19:18:01.901088","MEAN_MOTION":1.02040347,"ECCENTRICITY":0.01240364,"INCLINATION":1.3981,"RA_OF_ASC_NODE":94.6706,"ARG_OF_PERICENTER":249.8097,"MEAN_ANOMALY":109.6474,"EPHEMERIS_TYPE":0,"CLASSIFICATION_TYPE":"U","NORAD_CAT_ID":61991,"ELEMENT_SET_NO":999,"REV_AT_EPOCH":510,"BSTAR":0,"MEAN_MOTION_DOT":3.2e-7,"MEAN_MOTION_DDOT":0},{"OBJECT_NAME":"INTELSAT 33E DEB","OBJECT_ID":"2016-053J","EPOCH":"2026-03-02T23:56:06.953280","MEAN_MOTION":1.00801967,"ECCENTRICITY":0.00545925,"INCLINATION":1.29,"RA_OF_ASC_NODE":85.4559,"ARG_OF_PERICENTER":275.6707,"MEAN_ANOMALY":84.691,"EPHEMERIS_TYPE":0,"CLASSIFICATION_TYPE":"U","NORAD_CAT_ID":61992,"ELEMENT_SET_NO":999,"REV_AT_EPOCH":504,"BSTAR":0,"MEAN_MOTION_DOT":-2.92e-6,"MEAN_MOTION_DDOT":0},{"OBJECT_NAME":"INTELSAT 33E DEB","OBJECT_ID":"2016-053K","EPOCH":"2026-03-02T22:48:13.680576","MEAN_MOTION":1.01202169,"ECCENTRICITY":0.00986318,"INCLINATION":1.2025,"RA_OF_ASC_NODE":75.2314,"ARG_OF_PERICENTER":309.5561,"MEAN_ANOMALY":50.6984,"EPHEMERIS_TYPE":0,"CLASSIFICATION_TYPE":"U","NORAD_CAT_ID":61993,"ELEMENT_SET_NO":999,"REV_AT_EPOCH":506,"BSTAR":0,"MEAN_MOTION_DOT":-2.7e-6,"MEAN_MOTION_DDOT":0},{"OBJECT_NAME":"INTELSAT 33E DEB","OBJECT_ID":"2016-053L","EPOCH":"2026-03-03T10:48:51.246432","MEAN_MOTION":1.00502045,"ECCENTRICITY":0.0025598,"INCLINATION":1.3129,"RA_OF_ASC_NODE":87.1597,"ARG_OF_PERICENTER":209.6136,"MEAN_ANOMALY":151.2315,"EPHEMERIS_TYPE":0,"CLASSIFICATION_TYPE":"U","NORAD_CAT_ID":61994,"ELEMENT_SET_NO":999,"REV_AT_EPOCH":503,"BSTAR":0,"MEAN_MOTION_DOT":-3.51e-6,"MEAN_MOTION_DDOT":0},{"OBJECT_NAME":"INTELSAT 33E DEB","OBJECT_ID":"2016-053M","EPOCH":"2026-03-03T18:50:35.381472","MEAN_MOTION":1.01033526,"ECCENTRICITY":0.0054197,"INCLINATION":1.2727,"RA_OF_ASC_NODE":84.0148,"ARG_OF_PERICENTER":280.379,"MEAN_ANOMALY":80.0624,"EPHEMERIS_TYPE":0,"CLASSIFICATION_TYPE":"U","NORAD_CAT_ID":61995,"ELEMENT_SET_NO":999,"REV_AT_EPOCH":506,"BSTAR":0,"MEAN_MOTION_DOT":8.5e-7,"MEAN_MOTION_DDOT":0},{"OBJECT_NAME":"INTELSAT 33E DEB","OBJECT_ID":"2016-053N","EPOCH":"2026-03-02T21:45:20.887200","MEAN_MOTION":1.0060603,"ECCENTRICITY":0.00551576,"INCLINATION":1.17,"RA_OF_ASC_NODE":65.5086,"ARG_OF_PERICENTER":320.614,"MEAN_ANOMALY":40.2047,"EPHEMERIS_TYPE":0,"CLASSIFICATION_TYPE":"U","NORAD_CAT_ID":61996,"ELEMENT_SET_NO":999,"REV_AT_EPOCH":503,"BSTAR":0,"MEAN_MOTION_DOT":-3.0e-6,"MEAN_MOTION_DDOT":0},{"OBJECT_NAME":"INTELSAT 33E DEB","OBJECT_ID":"2016-053P","EPOCH":"2026-03-02T22:20:29.128416","MEAN_MOTION":1.01611366,"ECCENTRICITY":0.0106462,"INCLINATION":1.2987,"RA_OF_ASC_NODE":87.2929,"ARG_OF_PERICENTER":264.7673,"MEAN_ANOMALY":94.9642,"EPHEMERIS_TYPE":0,"CLASSIFICATION_TYPE":"U","NORAD_CAT_ID":61997,"ELEMENT_SET_NO":999,"REV_AT_EPOCH":508,"BSTAR":0,"MEAN_MOTION_DOT":-2.67e-6,"MEAN_MOTION_DDOT":0},{"OBJECT_NAME":"INTELSAT 33E DEB","OBJECT_ID":"2016-053Q","EPOCH":"2026-03-02T21:48:31.368096","MEAN_MOTION":1.00405023,"ECCENTRICITY":0.0030618,"INCLINATION":1.2832,"RA_OF_ASC_NODE":84.4862,"ARG_OF_PERICENTER":268.9723,"MEAN_ANOMALY":91.6748,"EPHEMERIS_TYPE":0,"CLASSIFICATION_TYPE":"U","NORAD_CAT_ID":61998,"ELEMENT_SET_NO":999,"REV_AT_EPOCH":503,"BSTAR":0,"MEAN_MOTION_DOT":-2.74e-6,"MEAN_MOTION_DDOT":0},{"OBJECT_NAME":"INTELSAT 33E DEB","OBJECT_ID":"2016-053R","EPOCH":"2026-03-03T16:18:24.904224","MEAN_MOTION":0.99257749,"ECCENTRICITY":0.0111881,"INCLINATION":1.2359,"RA_OF_ASC_NODE":76.6182,"ARG_OF_PERICENTER":32.5577,"MEAN_ANOMALY":329.2662,"EPHEMERIS_TYPE":0,"CLASSIFICATION_TYPE":"U","NORAD_CAT_ID":61999,"ELEMENT_SET_NO":999,"REV_AT_EPOCH":497,"BSTAR":0,"MEAN_MOTION_DOT":1.0e-7,"MEAN_MOTION_DDOT":0},{"OBJECT_NAME":"INTELSAT 33E DEB","OBJECT_ID":"2016-053S","EPOCH":"2026-02-13T07:41:12.480576","MEAN_MOTION":1.00124863,"ECCENTRICITY":0.01112277,"INCLINATION":1.388,"RA_OF_ASC_NODE":95.5702,"ARG_OF_PERICENTER":289.5396,"MEAN_ANOMALY":69.289,"EPHEMERIS_TYPE":0,"CLASSIFICATION_TYPE":"U","NORAD_CAT_ID":62000,"ELEMENT_SET_NO":999,"REV_AT_EPOCH":484,"BSTAR":0,"MEAN_MOTION_DOT":8.2e-7,"MEAN_MOTION_DDOT":0}]
