ZHONGXING-4A            
1 60606U 24151A   26062.73655961 -.00000378  00000+0  00000+0 0  9996
2 60606   1.5866 271.9393 0001540  85.6305 187.2630  1.00269845  5699
HULIANWAN GAOGUI-03 (H*)
1 61503U 24181A   26062.85649659 -.00000255  00000+0  00000+0 0  9990
2 61503   0.0374  30.5483 0000241 153.7444 208.4964  1.00276500  5761
DSN-3 (KIRAMEKI-3)      
1 61733U 24198A   26062.75763498 -.00000264  00000+0  00000+0 0  9990
2 61733   0.0232 239.0715 0001365  83.1162 256.1073  1.00270028  4864
KOREASAT 6A             
1 61910U 24206A   26062.53818693 -.00000376  00000+0  00000+0 0  9995
2 61910   0.0168 132.5460 0001026 197.0545 141.4465  1.00270626  4783
INTELSAT 33E DEB        
1 61988U 16053E   26061.80350109 -.00000039  00000+0  00000+0 0  9999
2 61988   1.4591  96.3120 0036805 133.7688 227.3001  0.99847537  4970
INTELSAT 33E DEB        
1 61989U 16053F   26060.96827846 -.00000291  00000+0  00000+0 0  9993
2 61989   2.2745 114.5723 0430284 151.5641 211.1417  0.98050636  4796
INTELSAT 33E DEB        
1 61990U 16053G   26062.05612030 -.00000255  00000+0  00000+0 0  9994
2 61990   1.1971  74.9944 0137757 293.2137  66.4733  1.01391220  5070
INTELSAT 33E DEB        
1 61991U 16053H   26061.80418867  .00000032  00000+0  00000+0 0  9991
2 61991   1.3981  94.6706 0124036 249.8097 109.6474  1.02040347  5105
INTELSAT 33E DEB        
1 61992U 16053J   26061.99730270 -.00000292  00000+0  00000+0 0  9996
2 61992   1.2900  85.4559 0054592 275.6707  84.6910  1.00801967  5045
INTELSAT 33E DEB        
1 61993U 16053K   26061.95015834 -.00000270  00000+0  00000+0 0  9991
2 61993   1.2025  75.2314 0098631 309.5561  50.6984  1.01202169  5063
INTELSAT 33E DEB        
1 61994U 16053L   26062.45059313 -.00000351  00000+0  00000+0 0  9998
2 61994   1.3129  87.1597 0025598 209.6136 151.2315  1.00502045  5033
INTELSAT 33E DEB        
1 61995U 16053M   26062.78513173  .00000085  00000+0  00000+0 0  9997
2 61995   1.2727  84.0148 0054197 280.3790  80.0624  1.01033526  5063
INTELSAT 33E DEB        
1 61996U 16053N   26061.90649175 -.00000300  00000+0  00000+0 0  9994
2 61996   1.1700  65.5086 0055157 320.6140  40.2047  1.00606030  5032
INTELSAT 33E DEB        
1 61997U 16053P   26061.93089269 -.00000267  00000+0  00000+0 0  9992
2 61997   1.2987  87.2929 0106462 264.7673  94.9642  1.01611366  5084
INTELSAT 33E DEB        
1 61998U 16053Q   26061.90869639 -.00000274  00000+0  00000+0 0  9995
2 61998   1.2832  84.4862 0030618 268.9723  91.6748  1.00405023  5036
INTELSAT 33E DEB        
1 61999U 16053R   26062.67945491  .00000010  00000+0  00000+0 0  9999
2 61999   1.2359  76.6182 0111881  32.5577 329.2662  0.99257749  4977
INTELSAT 33E DEB        
1 62000U 16053S   26044.32028334  .00000082  00000+0  00000+0 0  9992
2 62000   1.3880  95.5702 0111227 289.5396  69.2890  1.00124863  4849
